{
  "norad_id": 56786,
  "name": "STARLINK-6341",
  "history": [
    {
      "epoch": "2026-03-28T20:38:08.251872Z",
      "apogee_km": 574.0159298934796,
      "perigee_km": 570.0864324995955,
      "latitude_deg": -9.129778574189452e-06,
      "longitude_deg": 140.36640295785747,
      "height_km": 574.4468262658274,
      "semi_major_axis_km": 6950.188181196538,
      "eccentricity": 0.00028269,
      "inclination_deg": 69.9979,
      "raan_deg": 276.175,
      "arg_perigee_deg": 270.9182,
      "mean_anomaly_deg": 89.1653,
      "mean_motion_rev_day": 14.98331523
    },
    {
      "epoch": "2026-03-29T06:14:56.603904Z",
      "apogee_km": 574.0220172482514,
      "perigee_km": 570.0788978960736,
      "latitude_deg": 6.275705716649703e-07,
      "longitude_deg": -5.240269819232314,
      "height_km": 574.4385250591781,
      "semi_major_axis_km": 6950.187457572162,
      "eccentricity": 0.00028367,
      "inclination_deg": 69.9978,
      "raan_deg": 275.1646,
      "arg_perigee_deg": 271.1353,
      "mean_anomaly_deg": 88.9481,
      "mean_motion_rev_day": 14.98331757
    },
    {
      "epoch": "2026-03-30T12:41:29.761152Z",
      "apogee_km": 574.0162496539933,
      "perigee_km": 570.0839727902048,
      "latitude_deg": 9.537238507304068e-06,
      "longitude_deg": -106.32715165068724,
      "height_km": 574.4349529918214,
      "semi_major_axis_km": 6950.187111222099,
      "eccentricity": 0.00028289,
      "inclination_deg": 69.998,
      "raan_deg": 271.9661,
      "arg_perigee_deg": 271.2326,
      "mean_anomaly_deg": 88.8509,
      "mean_motion_rev_day": 14.98331869
    },
    {
      "epoch": "2026-03-30T20:42:10.044000Z",
      "apogee_km": 574.0308586751198,
      "perigee_km": 570.0689741252954,
      "latitude_deg": -4.559016573945992e-05,
      "longitude_deg": 132.33437570849048,
      "height_km": 574.4281746830694,
      "semi_major_axis_km": 6950.186916400207,
      "eccentricity": 0.00028502,
      "inclination_deg": 69.9981,
      "raan_deg": 271.1245,
      "arg_perigee_deg": 271.4148,
      "mean_anomaly_deg": 88.6684,
      "mean_motion_rev_day": 14.98331932
    }
  ]
}